NORAD_CAT_ID,OBJECT_NAME,OBJECT_TYPE,EPOCH,MEAN_MOTION,ECCENTRICITY,INCLINATION,RA_OF_ASC_NODE,ARG_OF_PERICENTER,MEAN_ANOMALY,BSTAR,MEAN_MOTION_DOT,MEAN_MOTION_DDOT,TLE_LINE0,TLE_LINE1,TLE_LINE2,SEMIMAJOR_AXIS,PERIOD,APOGEE,PERIGEE,DECAYED
52644.0,STARLINK-3985,PAYLOAD,2024-03-16 22:09:30,15.08842105,0.0001223,53.2158,263.7428,94.9589,265.1543,1.5348e-05,-4.4e-07,0.0,0 STARLINK-3985,1 52644U 22052AY  24076.92326572 -.00000044  00000-0  15348-4 0  9991,2 52644  53.2158 263.7428 0001223  94.9589 265.1543 15.08842105102015,6917.874,95.437,540.585,538.893,0.0
52644.0,STARLINK-3985,PAYLOAD,2024-03-17 12:27:58,15.08835801,0.0001219,53.2158,261.0655,95.5403,264.5728,5.739e-05,6.26e-06,0.0,0 STARLINK-3985,1 52644U 22052AY  24077.51942705  .00000626  00000-0  57390-4 0  9997,2 52644  53.2158 261.0655 0001219  95.5403 264.5728 15.08835801102108,6917.893,95.438,540.602,538.915,0.0
52644.0,STARLINK-3985,PAYLOAD,2024-03-17 18:49:30,15.08838322,0.0001255,53.216,259.8767,95.0578,265.0557,7.3391e-05,8.8e-06,0.0,0 STARLINK-3985,1 52644U 22052AY  24077.78438556  .00000880  00000-0  73391-4 0  9991,2 52644  53.2160 259.8767 0001255  95.0578 265.0557 15.08838322102149,6917.886,95.438,540.619,538.882,0.0
52644.0,STARLINK-3985,PAYLOAD,2024-03-18 12:18:45,15.08837124,0.0001298,53.2162,256.6057,98.5116,261.6023,7.2357e-05,8.64e-06,0.0,0 STARLINK-3985,1 52644U 22052AY  24078.51302768  .00000864  00000-0  72357-4 0  9991,2 52644  53.2162 256.6057 0001298  98.5116 261.6023 15.08837124102634,6917.889,95.438,540.652,538.856,0.0
52644.0,STARLINK-3985,PAYLOAD,2024-03-19 10:34:09,15.08838951,0.0001288,53.216,252.4443,89.9021,270.2118,8.2532e-05,1.026e-05,0.0,0 STARLINK-3985,1 52644U 22052AY  24079.44038903  .00001026  00000-0  82532-4 0  9998,2 52644  53.2160 252.4443 0001288  89.9021 270.2118 15.08838951102396,6917.884,95.438,540.64,538.858,0.0
52644.0,STARLINK-3985,PAYLOAD,2024-03-19 20:06:27,15.08846741,0.000138,53.2173,250.6599,101.2596,258.8551,0.00012355,1.679e-05,0.0,0 STARLINK-3985,1 52644U 22052AY  24079.83782289  .00001679  00000-0  12355-3 0  9993,2 52644  53.2173 250.6599 0001380 101.2596 258.8551 15.08846741102838,6917.86,95.437,540.679,538.77,0.0
52644.0,STARLINK-3985,PAYLOAD,2024-03-20 10:24:56,15.08839413,0.0001284,53.2168,247.9841,90.8505,269.2634,7.9959e-05,9.85e-06,0.0,0 STARLINK-3985,1 52644U 22052AY  24080.43398950  .00000985  00000-0  79959-4 0  9992,2 52644  53.2168 247.9841 0001284  90.8505 269.2634 15.08839413102923,6917.882,95.438,540.635,538.859,0.0
52644.0,STARLINK-3985,PAYLOAD,2024-03-20 18:21:52,15.08833354,0.0001206,53.2154,246.4945,110.2455,249.8666,4.2073e-05,3.82e-06,0.0,0 STARLINK-3985,1 52644U 22052AY  24080.76519529  .00000382  00000-0  42073-4 0  9993,2 52644  53.2154 246.4945 0001206 110.2455 249.8666 15.08833354102974,6917.901,95.438,540.6,538.931,0.0
52644.0,STARLINK-3985,PAYLOAD,2024-03-21 03:54:11,15.08845586,0.0001179,53.2161,244.7088,94.1716,265.9411,4.2413e-05,3.87e-06,0.0,0 STARLINK-3985,1 52644U 22052AY  24081.16263029  .00000387  00000-0  42413-4 0  9992,2 52644  53.2161 244.7088 0001179  94.1716 265.9411 15.08845586103035,6917.863,95.437,540.544,538.913,0.0
52644.0,STARLINK-3985,PAYLOAD,2024-03-21 19:48:02,15.08845956,0.0001437,53.2175,241.7355,84.5375,275.5782,3.974e-05,3.45e-06,0.0,0 STARLINK-3985,1 52644U 22052AY  24081.82503107  .00000345  00000-0  39740-4 0  9992,2 52644  53.2175 241.7355 0001437  84.5375 275.5782 15.08845956102752,6917.862,95.437,540.721,538.733,0.0
52644.0,STARLINK-3985,PAYLOAD,2024-03-22 10:06:30,15.08845001,0.0001278,53.2154,239.0601,94.1844,265.9294,0.00027835,4.145e-05,0.0,0 STARLINK-3985,1 52644U 22052AY  24082.42118874  .00004145  00000-0  27835-3 0  9995,2 52644  53.2154 239.0601 0001278  94.1844 265.9294 15.08845001103229,6917.865,95.437,540.614,538.846,0.0
52644.0,STARLINK-3985,PAYLOAD,2024-03-22 14:52:40,15.08847363,0.0001293,53.2154,238.1681,88.0304,272.0837,0.00028976,4.328e-05,0.0,0 STARLINK-3985,1 52644U 22052AY  24082.61990765  .00004328  00000-0  28976-3 0  9993,2 52644  53.2154 238.1681 0001293  88.0304 272.0837 15.08847363102872,6917.858,95.437,540.617,538.828,0.0
52644.0,STARLINK-3985,PAYLOAD,2024-03-22 18:03:26,15.08848784,0.00013,53.2156,237.5736,88.8779,271.2362,0.00030959,4.644e-05,0.0,0 STARLINK-3985,1 52644U 22052AY  24082.75238723  .00004644  00000-0  30959-3 0  9992,2 52644  53.2156 237.5736 0001300  88.8779 271.2362 15.08848784102895,6917.854,95.437,540.618,538.819,0.0
52644.0,STARLINK-3985,PAYLOAD,2024-03-23 19:29:36,15.08842104,0.0001371,53.2162,232.8165,90.9066,269.2083,2.5338e-05,1.15e-06,0.0,0 STARLINK-3985,1 52644U 22052AY  24083.81223207  .00000115  00000-0  25338-4 0  9996,2 52644  53.2162 232.8165 0001371  90.9066 269.2083 15.08842104103435,6917.874,95.437,540.687,538.791,0.0
52644.0,STARLINK-3985,PAYLOAD,2024-03-24 12:58:52,15.08814011,0.0001428,53.2169,229.5472,62.6861,297.4276,-0.00029278,-4.941e-05,0.0,0 STARLINK-3985,1 52644U 22052AY  24084.54089005 -.00004941  00000-0 -29278-3 0  9992,2 52644  53.2169 229.5472 0001428  62.6861 297.4276 15.08814011103543,6917.96,95.439,540.813,538.837,0.0
52644.0,STARLINK-3985,PAYLOAD,2024-03-24 14:34:16,15.08816867,0.0001471,53.216,229.2482,55.6367,304.4764,-0.00022838,-3.918e-05,0.0,0 STARLINK-3985,1 52644U 22052AY  24084.60713010 -.00003918  00000-0 -22838-3 0  9997,2 52644  53.2160 229.2482 0001471  55.6367 304.4764 15.08816867103174,6917.951,95.439,540.834,538.798,0.0
52644.0,STARLINK-3985,PAYLOAD,2024-03-24 16:09:39,15.08811705,0.0001563,53.2165,228.9534,76.2467,283.8699,-0.00022877,-3.924e-05,0.0,0 STARLINK-3985,1 52644U 22052AY  24084.67337449 -.00003924  00000-0 -22877-3 0  9992,2 52644  53.2165 228.9534 0001563  76.2467 283.8699 15.08811705103189,6917.967,95.439,540.913,538.751,0.0
52644.0,STARLINK-3985,PAYLOAD,2024-03-25 12:49:39,15.08840864,0.000147,53.2169,225.0962,95.9573,264.1587,0.00025865,3.831e-05,0.0,0 STARLINK-3985,1 52644U 22052AY  24085.53448822  .00003831  00000-0  25865-3 0  9991,2 52644  53.2169 225.0962 0001470  95.9573 264.1587 15.08840864103691,6917.878,95.438,540.76,538.726,0.0
52644.0,STARLINK-3985,PAYLOAD,2024-03-25 16:00:25,15.08854146,0.0001242,53.2166,224.4865,82.6578,277.4555,0.00051926,7.989e-05,0.0,0 STARLINK-3985,1 52644U 22052AY  24085.66696083  .00007989  00000-0  51926-3 0  9994,2 52644  53.2166 224.4865 0001242  82.6578 277.4555 15.08854146103711,6917.837,95.437,540.561,538.843,0.0
52644.0,STARLINK-3985,PAYLOAD,2024-03-26 12:40:27,15.08815632,0.0001309,53.2169,220.6248,94.1291,265.985,2.2389e-05,6.8e-07,0.0,0 STARLINK-3985,1 52644U 22052AY  24086.52809828  .00000068  00000-0  22389-4 0  9996,2 52644  53.2169 220.6248 0001309  94.1291 265.9850 15.08815632103842,6917.955,95.439,540.725,538.914,0.0
52644.0,STARLINK-3985,PAYLOAD,2024-03-26 14:15:50,15.08818218,0.0001365,53.2167,220.3266,99.5579,260.5568,3.5825e-05,2.82e-06,0.0,0 STARLINK-3985,1 52644U 22052AY  24086.59433750  .00000282  00000-0  35825-4 0  9997,2 52644  53.2167 220.3266 0001365  99.5579 260.5568 15.08818218103476,6917.947,95.439,540.756,538.868,0.0
52644.0,STARLINK-3985,PAYLOAD,2024-03-26 19:01:59,15.08827735,0.0001204,53.2157,219.433,67.1138,292.9981,0.00013338,1.835e-05,0.0,0 STARLINK-3985,1 52644U 22052AY  24086.79305499  .00001835  00000-0  13338-3 0  9996,2 52644  53.2157 219.4330 0001204  67.1138 292.9981 15.08827735103887,6917.918,95.438,540.616,538.95,0.0
52644.0,STARLINK-3985,PAYLOAD,2024-03-27 14:06:37,15.08841375,0.000152,53.2187,215.8674,77.2287,282.8875,-6.4896e-05,-1.321e-05,0.0,0 STARLINK-3985,1 52644U 22052AY  24087.58793486 -.00001321  00000-0 -64896-4 0  9999,2 52644  53.2187 215.8674 0001520  77.2287 282.8875 15.08841375103627,6917.876,95.437,540.793,538.69,0.0
52644.0,STARLINK-3985,PAYLOAD,2024-03-27 15:42:00,15.08848798,0.0001157,53.2161,215.5706,68.5265,291.5851,-6.1969e-06,-3.86e-06,0.0,0 STARLINK-3985,1 52644U 22052AY  24087.65416798 -.00000386  00000-0 -61969-5 0  9994,2 52644  53.2161 215.5706 0001157  68.5265 291.5851 15.08848798104018,6917.853,95.437,540.519,538.918,0.0
52644.0,STARLINK-3985,PAYLOAD,2024-03-28 01:14:17,15.08864587,0.0001352,53.2176,213.7865,74.4952,285.6189,6.8615e-05,8.05e-06,0.0,0 STARLINK-3985,1 52644U 22052AY  24088.05159234  .00000805  00000-0  68615-4 0  9996,2 52644  53.2176 213.7865 0001352  74.4952 285.6189 15.08864587104074,6917.805,95.436,540.606,538.735,0.0
52644.0,STARLINK-3985,PAYLOAD,2024-03-28 12:22:01,15.08832221,0.0002303,53.2171,211.7034,86.3205,273.8051,0.00026218,3.886e-05,0.0,0 STARLINK-3985,1 52644U 22052AY  24088.51529272  .00003886  00000-0  26218-3 0  9994,2 52644  53.2171 211.7034 0002303  86.3205 273.8051 15.08832221104140,6917.904,95.438,541.362,538.176,0.0
52644.0,STARLINK-3985,PAYLOAD,2024-03-28 17:08:11,15.08827341,0.0001971,53.2175,210.8114,92.0989,268.0229,0.00019059,2.745e-05,0.0,0 STARLINK-3985,1 52644U 22052AY  24088.71401678  .00002745  00000-0  19059-3 0  9993,2 52644  53.2175 210.8114 0001971  92.0989 268.0229 15.08827341103796,6917.919,95.438,541.148,538.421,0.0
52644.0,STARLINK-3985,PAYLOAD,2024-03-29 12:12:47,15.08851075,0.000184,53.2191,207.2454,86.9609,273.1594,0.00020841,3.031e-05,0.0,0 STARLINK-3985,1 52644U 22052AY  24089.50888015  .00003031  00000-0  20841-3 0  9995,2 52644  53.2191 207.2454 0001840  86.9609 273.1594 15.08851075104296,6917.847,95.437,540.984,538.439,0.0
52644.0,STARLINK-3985,PAYLOAD,2024-03-29 16:58:54,15.08883169,0.0001186,53.2162,206.3527,103.6813,256.4311,0.00038652,5.876e-05,0.0,0 STARLINK-3985,1 52644U 22052AY  24089.70757201  .00005876  00000-0  38652-3 0  9997,2 52644  53.2162 206.3527 0001186 103.6813 256.4311 15.08883169104326,6917.748,95.435,540.434,538.793,0.0
52644.0,STARLINK-3985,PAYLOAD,2024-03-30 00:55:48,15.08895564,0.000241,53.2184,204.8659,75.441,284.6849,0.00033395,5.039e-05,0.0,0 STARLINK-3985,1 52644U 22052AY  24090.03875763  .00005039  00000-0  33395-3 0  9999,2 52644  53.2184 204.8659 0002410  75.4410 284.6849 15.08895564104375,6917.711,95.434,541.243,537.908,0.0
